#dP2022  5 27 18  0  0.00000000      96 __u+U ITR00 EXT  IAC
## 2211 496800.00000000   900.00000000 59726 0.7500000000000
+  116   C06C07C08C09C10C11C12C13C14C16C19C20C21C22C23C24C25
+        C26C27C28C29C30C32C33C34C35C36C37C38C39C40C41C42C43
+        C44C45C46E01E02E03E04E05E07E08E09E10E11E12E13E14E15
+        E18E19E21E24E25E26E27E30E31E33E34E36G01G02G03G04G05
+        G06G07G08G09G10G11G13G14G15G16G17G18G19G20G21G22G23
+        G24G25G26G27G28G29G30G31G32J02J03R01R02R03R04R05R07
+        R08R09R11R12R13R14R15R17R18R19R20R21R22R24  0  0  0
++         0  0  0  0  0  0  0  0  0  0  0  0  0  0  0  0  0
++         0  0  0  0  0  0  0  0  0  0  0  0  0  0  0  0  0
++         0  0  0  0  0  0  0  0  0  0  0  0  0  0  0  0  0
++         0  0  0  0  0  0  0  0  0  0  0  0  0  0  0  0  0
++         0  0  0  0  0  0  0  0  0  0  0  0  0  0  0  0  0
++         0  0  0  0  0  0  0  0  0  0  0  0  0  0  0  0  0
++         0  0  0  0  0  0  0  0  0  0  0  0  0  0  0  0  0
%c M  cc GPS ccc cccc cccc cccc cccc ccccc ccccc ccccc ccccc
%c cc cc ccc ccc cccc cccc cccc cccc ccccc ccccc ccccc ccccc
%f  0.0000000  0.000000000  0.00000000000  0.000000000000000
%f  0.0000000  0.000000000  0.00000000000  0.000000000000000
%i    0    0    0    0      0      0      0      0         0
%i    0    0    0    0      0      0      0      0         0
/* IAC                                ULTRA-RAPID PREDICTION
/* S/V CLOCKS ARE ALIGNED TO GNSS TIME                      
/* G:C1WC2W R:C1PC2P E:C1XC5X C:C2IC6I J:C1CC2S             
/* PCV:IGS14_2196 OL/AL:FES2004  NONE     YN ORB:CoN CLK:CoN
*  2022 05 28  0  0  0.00000000
PC06 -12831.126508  39923.132612   3204.366098     71.093306
PC07  -2581.434568  30856.523898  28689.276894   -222.690747
PC08 -16265.413821  21869.386341 -32223.950355    334.530528
PC09  -8184.885143  39547.215739  11531.308943   -828.068209
PC10   5639.641801  34032.853335  24814.012784    129.900731
PC11   8253.089767 -26618.095759   1165.988631    378.729352
PC12  16164.585189 -16681.455713 -15427.728509   -609.166317
PC13  -8174.001159  23449.780193 -34001.337604    -20.504500
PC14   -224.066236 -19953.849146  19506.207963    485.562844
PC16 -14758.462375  39347.443997   -116.029884    135.258876
PC19   9314.274454  22921.094391 -12903.079938    865.428119
PC20  -7030.456263  15026.581472 -22425.844169   -933.103048
PC21  20260.570112   2522.670308  19057.528093   -372.585331
PC22  20923.092649  17946.125932   4468.567971   -967.410661
PC23 -19848.525137  -8538.026933 -17652.715212   -930.990030
PC24  19553.572254 -14463.355016 -13671.096758   -970.275123
PC25  -1711.916179 -16270.314572 -22611.822067   -730.389924
PC26  27274.400326  -5555.284563   1726.739053    731.733930
PC27 -17347.954633   7549.456982  20483.683192    729.906570
PC28 -11873.369684 -12570.764495  21900.459526     71.768789
PC29     23.702825  25993.361365 -10161.410023    560.492722
PC30 -12389.560418  23701.075324   7917.590674    499.100222
PC32 -20275.188343  -2397.045828 -18996.596168   -964.805776
PC33  -9302.835179 -22858.125299  13015.066115   -966.703702
PC34  11956.061684 -24247.296475  -6984.508525   -393.901951
PC35  11862.945607  13199.448030 -21540.453741    293.853142
PC36    704.621636  16421.598349  22577.624716   -965.381603
PC37 -27458.079643   4144.711759  -2842.523475   -908.459197
PC38 -23315.267484  23023.277423 -26596.070815    235.189691
PC39 -16250.569500  38203.661595  -6808.458686     34.974638
PC40  -6123.880542  25892.630919  32740.479294    272.617142
PC41 -20790.903360 -18179.608962  -3919.920438   -967.079778
PC42   8056.183825 -14250.552912  22644.707313   -967.265701
PC43    553.852236 -26250.601866   9473.965653   -921.593677
PC44  17210.364813  -7935.546537 -20510.062246    673.543228
PC45  20051.884088   8270.550831  17552.484458    768.267213
PC46 -18318.286972  14932.685943  14870.170521   -347.730275
PE01  24098.340803  14220.631717   9653.138054   -484.889074
PE02 -24212.935849 -14145.746066  -9499.652188    301.931909
PE03 -15742.012350 -19921.048729 -15198.645941   -562.748315
PE04  17306.874075   -517.352782  24020.679734  -1037.330201
PE05  -4881.622336 -29064.177566   2748.340487   -177.600310
PE07  -8626.717366  21175.386882 -18791.858052   -672.778136
PE08 -17103.073251    850.859491 -24134.844118   -536.522995
PE09   8416.355235 -21223.162476  18839.704458   -533.222507
PE10  23535.179610 -16731.536266  -6520.325329   -515.838622
PE11  19493.201847 -21954.310881   3833.689003   3537.860857
PE12  23782.047924  -8991.730926 -15183.157505   4592.234934
PE13 -19815.119063  21753.002302  -3170.430813    428.945138
PE14   -474.158410  29316.786417   2596.932615  -1824.959144
PE15 -23682.734671   8942.086369  15332.575291    743.010480
PE18   9776.274071 -22336.506974 -12859.782174  -1398.189976
PE19  14720.497277  21937.311466  13363.250830  -5392.139430
PE21   7430.199092  18052.524183  22249.220958   -736.729544
PE24  15759.232235 -11188.436939 -22427.085194   -638.649895
PE25  -7128.624214 -18037.402350 -22356.675828   -575.492246
PE26  -3413.097479  21418.414021 -20145.712624  -1194.806599
PE27 -14588.724379  11841.634918  22875.359006   -308.691846
PE30 -28078.576526  -2081.953457   9143.243808   -545.349182
PE31  27818.490735   1285.403273 -10026.255600   -497.327119
PE33  13575.316037   9063.782113 -24695.885883   -456.216731
PE34 -13738.909052  -8872.689256  24660.190699   -519.228674
PE36   4360.605643 -21699.246950  19657.124579   -379.800631
PG01  -9091.527571  19409.297635 -15749.183000    353.639633
PG02  21356.846705 -15334.384786  -3636.297562   -653.101950
PG03    416.115197  15969.208825 -21349.241710   -259.400423
PG04  -1616.114210  25910.399644  -5375.074590   -163.068935
PG05  15484.470995  -8749.198341  19607.635754    -83.413721
PG06  20774.008357  -1837.461634 -16435.016529    320.213253
PG07   7403.618569  13860.027467  21786.053106    322.204232
PG08  -6517.919656  21658.792992  13592.639029    -69.745522
PG09   6823.523667  25206.934336   4688.005034   -333.327089
PG10 -23908.539891 -11770.565379   2110.883902   -431.434134
PG11  23295.572253 -12078.189852  -4044.204147    -20.090823
PG13  12914.573708 -13831.771998  18412.620543    319.348265
PG14  22914.789100  13210.442553   2922.715765   -109.984728
PG15   3768.303630 -22834.279375  12339.503680    -57.852726
PG16 -19936.152542   2710.828108  17295.445659   -504.471139
PG17  12931.575290  14006.683766 -18039.619913    617.933006
PG18  -5985.434327 -13979.964373  21757.614697    158.448230
PG19  14677.406996   5757.331958 -21667.424499    162.999095
PG20  23242.544986  -3234.739147  12217.305587    513.884445
PG21 -16478.200227  19463.147444  -5358.533481    161.230128
PG22 -15019.840946  -2460.277195 -21363.986228    266.174077
PG23 -17659.451633 -15879.539951  11989.948389    -24.607559
PG24  11115.599095 -21098.580924 -11548.274346    232.951986
PG25 -10753.615902 -17638.253300 -17131.643005    330.141529
PG26 -25267.016803  -2910.757801   8097.468024    208.538513
PG27 -12913.419694  10176.240468  20554.347817    209.105197
PG28  24165.020509   8934.197969  -5418.670146    349.883609
PG29  -4371.690048 -25686.268139   4911.140968   -518.129093
PG30  16024.890271   6800.195677  20208.506798   -529.465769
PG31 -22399.352615   3444.691723 -14349.566897   -179.407299
PG32 -14840.840959 -11058.223133 -18970.920745   -137.154509
PJ02 -28342.379447  22129.810721  26995.775400     -0.310731
PJ03 -31171.817571  27114.191605  13358.213420     -2.449090
PR01  12513.266315   -494.929546  22231.780686      9.178763
PR02   -318.206415 -17281.208377  18832.583729    519.641091
PR03 -11792.062672 -22279.236540   4131.966172     57.399574
PR04 -16342.187257 -14910.468674 -12672.518694    143.604054
PR05 -11995.283472    629.352077 -22488.889643     93.604923
PR07  12174.562164  22146.824366  -3242.944671     35.658177
PR08  16473.811831  14629.651130  12897.172056    -65.365126
PR09 -10277.490074  10862.557517  20660.805096     57.379222
PR11  22649.601643   3943.276786  11078.851869     37.873286
PR12  23929.701692  -4689.987313  -7434.337357     18.646009
PR13  11737.804937 -10351.148637 -20157.156244    -22.894743
PR14  -8833.717784 -10061.790850 -21695.014275     25.502301
PR15 -23037.055270  -3859.654406 -10224.439267     95.830406
PR17    917.782788 -18602.144815  17412.465031    529.825217
PR18  -9381.725781  -4608.372916  23274.964661    118.320318
PR19 -15087.575993  10484.421813  17687.881938   -190.574610
PR20 -12390.387622  22251.447527   -910.322079    -71.430962
PR21    -90.909089  17671.509687 -18412.576667   -304.726303
PR22   9831.387086   3665.164337 -23273.742022   -185.874913
PR24  11503.578117 -22703.717305   1619.817102     95.833019
EOF
